NORAD_CAT_ID,OBJECT_NAME,OBJECT_TYPE,EPOCH,MEAN_MOTION,ECCENTRICITY,INCLINATION,RA_OF_ASC_NODE,ARG_OF_PERICENTER,MEAN_ANOMALY,BSTAR,MEAN_MOTION_DOT,MEAN_MOTION_DDOT,TLE_LINE0,TLE_LINE1,TLE_LINE2,SEMIMAJOR_AXIS,PERIOD,APOGEE,PERIGEE,DECAYED
50816.0,STARLINK-3342,PAYLOAD,2023-01-08 06:27:07,15.08840841,0.0001986,53.2159,320.5003,77.9495,282.172,0.00066562,0.00010321,0.0,0 STARLINK-3342,1 50816U 22001P   23008.26883668  .00010321  00000-0  66562-3 0  9990,2 50816  53.2159 320.5003 0001986  77.9495 282.1720 15.08840841 57109,6917.8780000000015,95.438,541.117,538.369,0.0
50816.0,STARLINK-3342,PAYLOAD,2023-01-09 06:17:54,15.08856555,0.0002002,53.2161,316.0397,81.2273,278.8946,0.00055204,8.513e-05,0.0,0 STARLINK-3342,1 50816U 22001P   23009.26243065  .00008513  00000-0  55204-3 0  9993,2 50816  53.2161 316.0397 0002002  81.2273 278.8946 15.08856555 55974,6917.83,95.437,541.08,538.31,0.0
50816.0,STARLINK-3342,PAYLOAD,2023-01-09 20:36:22,15.08834134,0.0001599,53.2145,313.3639,81.6319,278.4854,-4.3798e-05,-9.85e-06,0.0,0 STARLINK-3342,1 50816U 22001P   23009.85859757 -.00000985  00000-0 -43798-4 0  9992,2 50816  53.2145 313.3639 0001599  81.6319 278.4854 15.08834134 56064,6917.898,95.438,540.869,538.6569999999998,0.0
50816.0,STARLINK-3342,PAYLOAD,2023-01-10 04:33:18,15.08836615,0.0001767,53.2148,311.8777,85.8124,274.307,0.00013838,1.915e-05,0.0,0 STARLINK-3342,1 50816U 22001P   23010.18979871  .00001915  00000-0  13838-3 0  9993,2 50816  53.2148 311.8777 0001767  85.8124 274.3070 15.08836615 57398,6917.891,95.438,540.9780000000002,538.533,0.0
50816.0,STARLINK-3342,PAYLOAD,2023-01-10 20:27:10,15.0884163,0.0001703,53.2157,308.9057,90.6642,269.4545,0.00043172,6.59e-05,0.0,0 STARLINK-3342,1 50816U 22001P   23010.85220142  .00006590  00000-0  43172-3 0  9995,2 50816  53.2157 308.9057 0001703  90.6642 269.4545 15.08841630 56210,6917.875,95.437,540.919,538.562,0.0
50816.0,STARLINK-3342,PAYLOAD,2023-01-11 12:21:01,15.08858819,0.0001595999999999,53.2161,305.9302,81.5064,278.6109,0.0007304999999999,0.00011363,0.0,0 STARLINK-3342,1 50816U 22001P   23011.51459640  .00011363  00000-0  73050-3 0  9998,2 50816  53.2161 305.9302 0001596  81.5064 278.6109 15.08858819 57599,6917.823,95.436,540.7919999999998,538.5840000000002,0.0
50816.0,STARLINK-3342,PAYLOAD,2023-01-11 18:42:33,15.08857484,0.000243,53.2162,304.7436,82.2986,277.8283,0.00064523,0.00010001,0.0,0 STARLINK-3342,1 50816U 22001P   23011.77955832  .00010001  00000-0  64523-3 0  9993,2 50816  53.2162 304.7436 0002430  82.2986 277.8283 15.08857484 56358,6917.826999999998,95.436,541.373,538.011,0.0
50816.0,STARLINK-3342,PAYLOAD,2023-01-12 02:39:29,15.08853014,0.0001606,53.2154,303.2561,80.7329,279.3845,0.00057648,8.902e-05,0.0,0 STARLINK-3342,1 50816U 22001P   23012.11075582  .00008902  00000-0  57648-3 0  9994,2 50816  53.2154 303.2561 0001606  80.7329 279.3845 15.08853014 57683,6917.840999999999,95.437,540.817,538.595,0.0
50816.0,STARLINK-3342,PAYLOAD,2023-01-12 12:11:48,15.08845329,0.000145,53.2156,301.4701,84.68700000000003,275.4288,0.00055968,8.632e-05,0.0,0 STARLINK-3342,1 50816U 22001P   23012.50819711  .00008632  00000-0  55968-3 0  9990,2 50816  53.2156 301.4701 0001450  84.6870 275.4288 15.08845329 57747,6917.864000000001,95.437,540.732,538.726,0.0
50816.0,STARLINK-3342,PAYLOAD,2023-01-13 00:54:53,15.08835466,0.0001631,53.2164,299.0916,83.3833,276.7345,0.00014788,2.066e-05,0.0,0 STARLINK-3342,1 50816U 22001P   23013.03812128  .00002066  00000-0  14788-3 0  9994,2 50816  53.2164 299.0916 0001631  83.3833 276.7345 15.08835466 57820,6917.894,95.438,540.888,538.631,0.0
50816.0,STARLINK-3342,PAYLOAD,2023-01-13 02:30:16,15.08849572,0.000118,53.2144,298.7934,93.2514,266.8613,0.00026011,3.855e-05,0.0,0 STARLINK-3342,1 50816U 22001P   23013.10435467  .00003855  00000-0  26011-3 0  9998,2 50816  53.2144 298.7934 0001180  93.2514 266.8613 15.08849572 57831,6917.851,95.437,540.5319999999998,538.9,0.0
50816.0,STARLINK-3342,PAYLOAD,2023-01-13 12:02:35,15.08837591,0.0001545,53.2148,297.0096,71.1413,288.9747,0.00010117,1.322e-05,0.0,0 STARLINK-3342,1 50816U 22001P   23013.50180197  .00001322  00000-0  10117-3 0  9996,2 50816  53.2148 297.0096 0001545  71.1413 288.9747 15.08837591 57891,6917.888000000001,95.438,540.822,538.684,0.0
50816.0,STARLINK-3342,PAYLOAD,2023-01-13 18:24:08,15.08836826,0.0001652,53.2144,295.8216,71.342,288.7752,0.00014656,2.045e-05,0.0,0 STARLINK-3342,1 50816U 22001P   23013.76676409  .00002045  00000-0  14656-3 0  9995,2 50816  53.2144 295.8216 0001652  71.3420 288.7752 15.08836826 56653,6917.89,95.438,540.898,538.612,0.0
50816.0,STARLINK-3342,PAYLOAD,2023-01-14 18:14:55,15.08837972,0.0001248,53.2155,291.3601,78.6245,281.4887,0.00014345,1.996e-05,0.0,0 STARLINK-3342,1 50816U 22001P   23014.76036372  .00001996  00000-0  14345-3 0  9994,2 50816  53.2155 291.3601 0001248  78.6245 281.4887 15.08837972 58081,6917.887,95.438,540.615,538.888,0.0
50816.0,STARLINK-3342,PAYLOAD,2023-01-15 03:47:13,15.08856189,0.0001556,53.2131,289.5745,90.6796,269.4374,0.00049467,7.597e-05,0.0,0 STARLINK-3342,1 50816U 22001P   23015.15779737  .00007597  00000-0  49467-3 0  9993,2 50816  53.2131 289.5745 0001556  90.6796 269.4374 15.08856189 58145,6917.831,95.437,540.7719999999999,538.619,0.0
50816.0,STARLINK-3342,PAYLOAD,2023-01-15 11:44:10,15.08836497,0.000221,53.2148,288.0874,90.195,269.9295,6.94e-05,8.16e-06,0.0,0 STARLINK-3342,1 50816U 22001P   23015.48900554  .00000816  00000-0  69400-4 0  9999,2 50816  53.2148 288.0874 0002210  90.1950 269.9295 15.08836497 58197,6917.891,95.438,541.285,538.227,0.0
50816.0,STARLINK-3342,PAYLOAD,2023-01-15 13:19:32,15.08840713,0.0001183,53.2148,287.7923,75.8368,284.2756,1.2818e-05,-8.4e-07,0.0,0 STARLINK-3342,1 50816U 22001P   23015.55523906 -.00000084  00000-0  12818-4 0  9998,2 50816  53.2148 287.7923 0001183  75.8368 284.2756 15.08840713 56926,6917.878000000001,95.438,540.562,538.925,0.0
50816.0,STARLINK-3342,PAYLOAD,2023-01-15 21:16:27,15.08857774,0.0001165,53.215,286.3049,78.0407,282.0715,0.00045643,6.987e-05,0.0,0 STARLINK-3342,1 50816U 22001P   23015.88643398  .00006987  00000-0  45643-3 0  9990,2 50816  53.2150 286.3049 0001165  78.0407 282.0715 15.08857774 58256,6917.826,95.436,540.497,538.885,0.0
50816.0,STARLINK-3342,PAYLOAD,2023-01-16 00:27:13,15.08872169,9.04e-05,53.2149,285.7099,83.9573,276.1522,0.0012515999999999,0.00019705,0.0,0 STARLINK-3342,1 50816U 22001P   23016.01891194  .00019705  00000-0  12516-2 0  9999,2 50816  53.2149 285.7099 0000904  83.9573 276.1522 15.08872169 58278,6917.781999999999,95.436,540.2719999999999,539.0219999999999,0.0
50816.0,STARLINK-3342,PAYLOAD,2023-01-16 21:07:15,15.08810384,0.0001197,53.2149,281.8437,50.9728,309.137,0.0010915,0.00017112,0.0,0 STARLINK-3342,1 50816U 22001P   23016.88004613  .00017112  00000-0  10915-2 0  9997,2 50816  53.2149 281.8437 0001197  50.9728 309.1370 15.08810384 58406,6917.971,95.439,540.664,539.008,0.0
50816.0,STARLINK-3342,PAYLOAD,2023-01-17 03:28:49,15.08821814,0.0001319,53.2151,280.6541,46.3813,313.7289,0.0026366999999999,0.00041904,0.0,0 STARLINK-3342,1 50816U 22001P   23017.14501205  .00041904  00000-0  26367-2 0  9990,2 50816  53.2151 280.6541 0001319  46.3813 313.7289 15.08821814 58446,6917.936,95.439,540.7130000000001,538.889,0.0
50816.0,STARLINK-3342,PAYLOAD,2023-01-18 00:08:49,15.08853732,0.0001296999999999,53.2151,276.7887,46.8051,313.3049,0.0013114,0.00020652,0.0,0 STARLINK-3342,1 50816U 22001P   23018.00613342  .00020652  00000-0  13114-2 0  9995,2 50816  53.2151 276.7887 0001297  46.8051 313.3049 15.08853732 58577,6917.838000000001,95.437,540.601,538.806,0.0
50816.0,STARLINK-3342,PAYLOAD,2023-01-18 09:41:08,15.08855744,0.0001424,53.2157,275.0037,57.9519,302.1611,0.0014842,0.00023422,0.0,0 STARLINK-3342,1 50816U 22001P   23018.40357200  .00023422  00000-0  14842-2 0  9994,2 50816  53.2157 275.0037 0001424  57.9519 302.1611 15.08855744 57357,6917.831999999999,95.437,540.682,538.712,0.0
50816.0,STARLINK-3342,PAYLOAD,2023-01-18 20:48:50,15.08860563,0.000131,53.2149,272.923,66.2348,293.8782,0.001632,0.00025795,0.0,0 STARLINK-3342,1 50816U 22001P   23018.86725034  .00025795  00000-0  16320-2 0  9996,2 50816  53.2149 272.9230 0001310  66.2348 293.8782 15.08860563 57424,6917.818,95.436,540.589,538.776,0.0
50816.0,STARLINK-3342,PAYLOAD,2023-01-18 22:24:13,15.08863635,0.0001324,53.2148,272.6258,66.6714,293.4418,0.0018447,0.00029211,0.0,0 STARLINK-3342,1 50816U 22001P   23018.93348947  .00029211  00000-0  18447-2 0  9997,2 50816  53.2148 272.6258 0001324  66.6714 293.4418 15.08863635 58714,6917.808000000001,95.436,540.589,538.757,0.0
50816.0,STARLINK-3342,PAYLOAD,2023-01-19 03:10:22,15.08864184,0.0001419,53.2146,271.7323,64.9744,295.1395,0.00096425,0.00015101,0.0,0 STARLINK-3342,1 50816U 22001P   23019.13220553  .00015101  00000-0  96425-3 0  9998,2 50816  53.2146 271.7323 0001419  64.9744 295.1395 15.08864184 58740,6917.806,95.436,540.653,538.69,0.0
50816.0,STARLINK-3342,PAYLOAD,2023-01-20 03:01:10,15.08836305,0.0001909,53.215,267.2724,69.0315,291.0882,1.7777999999999998e-05,-5e-08,0.0,0 STARLINK-3342,1 50816U 22001P   23020.12581558 -.00000005  00000-0  17778-4 0  9997,2 50816  53.2150 267.2724 0001909  69.0315 291.0882 15.08836305 58890,6917.892,95.438,541.077,538.436,0.0
50816.0,STARLINK-3342,PAYLOAD,2023-01-21 01:16:33,15.08851442,0.0001411,53.2144,263.1094,75.9614,284.1535,0.00030669,4.598e-05,0.0,0 STARLINK-3342,1 50816U 22001P   23021.05317044  .00004598  00000-0  30669-3 0  9990,2 50816  53.2144 263.1094 0001411  75.9614 284.1535 15.08851442 59038,6917.845,95.437,540.687,538.734,0.0
50816.0,STARLINK-3342,PAYLOAD,2023-01-21 09:13:29,15.08844855,0.0001226,53.2156,261.6213,85.0111,275.1021,0.00033078,4.981e-05,0.0,0 STARLINK-3342,1 50816U 22001P   23021.38437288  .00004981  00000-0  33078-3 0  9992,2 50816  53.2156 261.6213 0001226  85.0111 275.1021 15.08844855 59080,6917.866,95.437,540.5790000000001,538.882,0.0
